[{"OBJECT_NAME":"SDS-4","OBJECT_ID":"2012-025C","EPOCH":"2026-03-09T22:00:42.096096","MEAN_MOTION":14.75631591,"ECCENTRICITY":0.00056029,"INCLINATION":98.1333,"RA_OF_ASC_NODE":164.2362,"ARG_OF_PERICENTER":252.4969,"MEAN_ANOMALY":107.5627,"EPHEMERIS_TYPE":0,"CLASSIFICATION_TYPE":"U","NORAD_CAT_ID":38339,"ELEMENT_SET_NO":999,"REV_AT_EPOCH":74134,"BSTAR":0.00023374761,"MEAN_MOTION_DOT":1.543e-5,"MEAN_MOTION_DDOT":0},{"OBJECT_NAME":"DELTA 2 R\/B(1)","OBJECT_ID":"1992-058B","EPOCH":"2026-03-09T12:38:44.013984","MEAN_MOTION":14.80036183,"ECCENTRICITY":0.0031916,"INCLINATION":19.7796,"RA_OF_ASC_NODE":223.0604,"ARG_OF_PERICENTER":105.8794,"MEAN_ANOMALY":254.5141,"EPHEMERIS_TYPE":0,"CLASSIFICATION_TYPE":"U","NORAD_CAT_ID":22109,"ELEMENT_SET_NO":999,"REV_AT_EPOCH":78068,"BSTAR":0.00025397141,"MEAN_MOTION_DOT":2.376e-5,"MEAN_MOTION_DDOT":0}]
